NORAD_CAT_ID,OBJECT_NAME,OBJECT_TYPE,EPOCH,MEAN_MOTION,ECCENTRICITY,INCLINATION,RA_OF_ASC_NODE,ARG_OF_PERICENTER,MEAN_ANOMALY,BSTAR,MEAN_MOTION_DOT,MEAN_MOTION_DDOT,TLE_LINE0,TLE_LINE1,TLE_LINE2,SEMIMAJOR_AXIS,PERIOD,APOGEE,PERIGEE,DECAYED
52354.0,STARLINK-3876,PAYLOAD,2024-06-06 09:41:52,15.08868835,0.0001321,53.2154,197.9659,83.8154,276.2989,0.00093825,0.00014688,0.0,0 STARLINK-3876,1 52354U 22045Z   24158.40408304  .00014688  00000-0  93825-3 0  9992,2 52354  53.2154 197.9659 0001321  83.8154 276.2989 15.08868835118974,6917.792,95.436,540.571,538.743,0.0
52354.0,STARLINK-3876,PAYLOAD,2024-06-07 09:32:39,15.08847301,0.0001388,53.2155,193.508,92.0001,268.115,-4.7848e-05,-1.05e-05,0.0,0 STARLINK-3876,1 52354U 22045Z   24159.39767788 -.00001050  00000-0 -47848-4 0  9991,2 52354  53.2155 193.5080 0001388  92.0001 268.1150 15.08847301119124,6917.858,95.437,540.683,538.763,0.0
52354.0,STARLINK-3876,PAYLOAD,2024-06-07 19:04:58,15.08845298,0.0001408,53.2152,191.7233,91.0552,269.0601,-4.7302e-05,-1.041e-05,0.0,0 STARLINK-3876,1 52354U 22045Z   24159.79511752 -.00001041  00000-0 -47302-4 0  9998,2 52354  53.2152 191.7233 0001408  91.0552 269.0601 15.08845298119184,6917.864,95.437,540.703,538.755,0.0
52354.0,STARLINK-3876,PAYLOAD,2024-06-08 09:23:26,15.08849888,0.0001415,53.2151,189.0467,90.6614,269.4541,9.3024e-06,-1.4e-06,0.0,0 STARLINK-3876,1 52354U 22045Z   24160.39127349 -.00000140  00000-0  93024-5 0  9992,2 52354  53.2151 189.0467 0001415  90.6614 269.4541 15.08849888119270,6917.85,95.437,540.694,538.736,0.0
52354.0,STARLINK-3876,PAYLOAD,2024-06-08 18:55:44,15.08852615,0.0001449,53.2149,187.2591,76.9784,283.137,0.00020175,2.925e-05,0.0,0 STARLINK-3876,1 52354U 22045Z   24160.78871016  .00002925  00000-0  20175-3 0  9999,2 52354  53.2149 187.2591 0001449  76.9784 283.1370 15.08852615119339,6917.842,95.437,540.709,538.704,0.0
52354.0,STARLINK-3876,PAYLOAD,2024-06-09 10:49:37,15.08830861,0.0001624,53.2156,184.2861,82.1765,277.9411,-5.3208e-05,-1.135e-05,0.0,0 STARLINK-3876,1 52354U 22045Z   24161.45112324 -.00001135  00000-0 -53208-4 0  9992,2 52354  53.2156 184.2861 0001624  82.1765 277.9411 15.08830861119434,6917.908,95.438,540.897,538.65,0.0
52354.0,STARLINK-3876,PAYLOAD,2024-06-09 18:46:32,15.08834685,0.0001592,53.2157,182.8009,84.2692,275.8482,1.1392e-05,-1.07e-06,0.0,0 STARLINK-3876,1 52354U 22045Z   24161.78232299 -.00000107  00000-0  11392-4 0  9997,2 52354  53.2157 182.8009 0001592  84.2692 275.8482 15.08834685119487,6917.897,95.438,540.863,538.66,0.0
52354.0,STARLINK-3876,PAYLOAD,2024-06-10 07:29:37,15.08840593,0.0001462,53.2155,180.4211,93.7581,266.3579,2.5235e-05,1.14e-06,0.0,0 STARLINK-3876,1 52354U 22045Z   24162.31224129  .00000114  00000-0  25235-4 0  9998,2 52354  53.2155 180.4211 0001462  93.7581 266.3579 15.08840593119568,6917.879,95.438,540.755,538.732,0.0
52354.0,STARLINK-3876,PAYLOAD,2024-06-11 07:20:24,15.08845372,0.0001487,53.2155,175.9602,82.6843,277.4318,0.00034633,5.229e-05,0.0,0 STARLINK-3876,1 52354U 22045Z   24163.30584229  .00005229  00000-0  34633-3 0  9991,2 52354  53.2155 175.9602 0001487  82.6843 277.4318 15.08845372119717,6917.864,95.437,540.758,538.7,0.0
52354.0,STARLINK-3876,PAYLOAD,2024-06-12 05:35:48,15.08839224,0.0001714,53.2174,171.7975,90.3509,269.7679,4.0665e-05,3.59e-06,0.0,0 STARLINK-3876,1 52354U 22045Z   24164.23320430  .00000359  00000-0  40665-4 0  9998,2 52354  53.2174 171.7975 0001714  90.3509 269.7679 15.08839224119851,6917.883,95.438,540.933,538.562,0.0
52354.0,STARLINK-3876,PAYLOAD,2024-06-12 07:11:11,15.08838349,0.0001512,53.2158,171.4998,86.4038,273.7127,6.007e-05,6.68e-06,0.0,0 STARLINK-3876,1 52354U 22045Z   24164.29944434  .00000668  00000-0  60070-4 0  9995,2 52354  53.2158 171.4998 0001512  86.4038 273.7127 15.08838349119865,6917.885,95.438,540.796,538.704,0.0
52354.0,STARLINK-3876,PAYLOAD,2024-06-13 07:01:58,15.08843913,0.0001639,53.2178,167.0409,90.6319,269.4861,6.9127e-05,8.12e-06,0.0,0 STARLINK-3876,1 52354U 22045Z   24165.29304130  .00000812  00000-0  69127-4 0  9992,2 52354  53.2178 167.0409 0001639  90.6319 269.4861 15.08843913120013,6917.868,95.437,540.867,538.6,0.0
52354.0,STARLINK-3876,PAYLOAD,2024-06-13 16:34:17,15.08837135,0.0001593,53.2178,165.2568,92.0318,268.0856,0.00015721,2.215e-05,0.0,0 STARLINK-3876,1 52354U 22045Z   24165.69048306  .00002215  00000-0  15721-3 0  9995,2 52354  53.2178 165.2568 0001593  92.0318 268.0856 15.08837135120077,6917.889,95.438,540.856,538.652,0.0
52354.0,STARLINK-3876,PAYLOAD,2024-06-14 06:52:46,15.08834308,0.0001583,53.2172,162.5803,90.6427,269.4746,6.2707e-05,7.1e-06,0.0,0 STARLINK-3876,1 52354U 22045Z   24166.28664705  .00000710  00000-0  62707-4 0  9993,2 52354  53.2172 162.5803 0001583  90.6427 269.4746 15.08834308120169,6917.898,95.438,540.858,538.668,0.0
52354.0,STARLINK-3876,PAYLOAD,2024-06-15 06:43:33,15.08840603,0.0001566,53.2168,158.1198,92.0404,268.0767,3.5855e-05,2.83e-06,0.0,0 STARLINK-3876,1 52354U 22045Z   24167.28024518  .00000283  00000-0  35855-4 0  9995,2 52354  53.2168 158.1198 0001566  92.0404 268.0767 15.08840603120314,6917.879,95.438,540.827,538.66,0.0
52354.0,STARLINK-3876,PAYLOAD,2024-06-15 16:15:51,15.08842985,0.0001571,53.217,156.3355,91.2007,268.9165,4.5348e-05,4.34e-06,0.0,0 STARLINK-3876,1 52354U 22045Z   24167.67768332  .00000434  00000-0  45348-4 0  9993,2 52354  53.2170 156.3355 0001571  91.2007 268.9165 15.08842985120370,6917.871,95.437,540.823,538.649,0.0
52354.0,STARLINK-3876,PAYLOAD,2024-06-16 08:09:43,15.08838833,0.0001536,53.2171,153.3614,91.5229,268.5939,7.9416e-05,9.76e-06,0.0,0 STARLINK-3876,1 52354U 22045Z   24168.34008595  .00000976  00000-0  79416-4 0  9990,2 52354  53.2171 153.3614 0001536  91.5229 268.5939 15.08838833120479,6917.884,95.438,540.812,538.686,0.0
52354.0,STARLINK-3876,PAYLOAD,2024-06-16 16:06:38,15.08843962,0.0001524,53.2172,151.8739,85.9972,274.1195,8.8482e-05,1.121e-05,0.0,0 STARLINK-3876,1 52354U 22045Z   24168.67128246  .00001121  00000-0  88482-4 0  9998,2 52354  53.2172 151.8739 0001524  85.9972 274.1195 15.08843962120522,6917.868,95.437,540.788,538.679,0.0
52354.0,STARLINK-3876,PAYLOAD,2024-06-17 15:57:25,15.08842794,0.0001598,53.2181,147.414,87.9533,272.1642,5.4731e-05,5.83e-06,0.0,0 STARLINK-3876,1 52354U 22045Z   24169.66488406  .00000583  00000-0  54731-4 0  9996,2 52354  53.2181 147.4140 0001598  87.9533 272.1642 15.08842794120678,6917.872,95.437,540.842,538.631,0.0
52354.0,STARLINK-3876,PAYLOAD,2024-06-18 04:40:31,15.08837803,0.0001483,53.2177,145.0326,101.8755,258.2404,-3.0817e-06,-3.37e-06,0.0,0 STARLINK-3876,1 52354U 22045Z   24170.19480848 -.00000337  00000-0 -30817-5 0  9997,2 52354  53.2177 145.0326 0001483 101.8755 258.2404 15.08837803120753,6917.887,95.438,540.778,538.726,0.0
52354.0,STARLINK-3876,PAYLOAD,2024-06-18 15:48:13,15.08842599,0.0001419,53.2164,142.9539,95.5027,264.6127,5.2874e-05,5.54e-06,0.0,0 STARLINK-3876,1 52354U 22045Z   24170.65848380  .00000554  00000-0  52874-4 0  9992,2 52354  53.2164 142.9539 0001419  95.5027 264.6127 15.08842599120820,6917.872,95.437,540.719,538.756,0.0
52354.0,STARLINK-3876,PAYLOAD,2024-06-19 07:42:04,15.08835502,0.0001617,53.2182,139.9769,103.1553,256.962,1.7098e-05,-1.6e-07,0.0,0 STARLINK-3876,1 52354U 22045Z   24171.32088969 -.00000016  00000-0  17098-4 0  9999,2 52354  53.2182 139.9769 0001617 103.1553 256.9620 15.08835502120920,6917.894,95.438,540.878,538.641,0.0
52354.0,STARLINK-3876,PAYLOAD,2024-06-20 02:46:42,15.08840185,0.0001553,53.2181,136.4095,101.4229,258.6938,8.6204e-05,1.084e-05,0.0,0 STARLINK-3876,1 52354U 22045Z   24172.11576454  .00001084  00000-0  86204-4 0  9998,2 52354  53.2181 136.4095 0001553 101.4229 258.6938 15.08840185121041,6917.88,95.438,540.819,538.67,0.0
52354.0,STARLINK-3876,PAYLOAD,2024-06-20 07:32:51,15.08844172,0.0001551,53.2181,135.5179,101.0126,259.1041,7.4345e-05,8.96e-06,0.0,0 STARLINK-3876,1 52354U 22045Z   24172.31448247  .00000896  00000-0  74345-4 0  9991,2 52354  53.2181 135.5179 0001551 101.0126 259.1041 15.08844172121078,6917.868,95.437,540.806,538.66,0.0
52354.0,STARLINK-3876,PAYLOAD,2024-06-20 18:40:33,15.08838005,0.0001475,53.2173,133.4355,102.0056,258.1101,6.6692e-05,7.74e-06,0.0,0 STARLINK-3876,1 52354U 22045Z   24172.77816590  .00000774  00000-0  66692-4 0  9992,2 52354  53.2173 133.4355 0001475 102.0056 258.1101 15.08838005121142,6917.886,95.438,540.772,538.731,0.0
52354.0,STARLINK-3876,PAYLOAD,2024-06-21 02:37:29,15.08830019,0.0001471,53.2179,131.9494,100.4253,259.6905,-8.4545e-06,-4.22e-06,0.0,0 STARLINK-3876,1 52354U 22045Z   24173.10937426 -.00000422  00000-0 -84545-5 0  9992,2 52354  53.2179 131.9494 0001471 100.4253 259.6905 15.08830019121192,6917.911,95.438,540.794,538.758,0.0
52354.0,STARLINK-3876,PAYLOAD,2024-06-21 07:23:39,15.08830684,0.0001445,53.2178,131.0573,99.3643,260.7512,-1.234e-05,-4.84e-06,0.0,0 STARLINK-3876,1 52354U 22045Z   24173.30809503 -.00000484  00000-0 -12340-4 0  9999,2 52354  53.2178 131.0573 0001445  99.3643 260.7512 15.08830684121229,6917.909,95.438,540.774,538.774,0.0
52354.0,STARLINK-3876,PAYLOAD,2024-06-22 00:52:53,15.08837028,0.0001468,53.218,127.7865,103.2569,256.8587,-2.4681e-05,-6.81e-06,0.0,0 STARLINK-3876,1 52354U 22045Z   24174.03673389 -.00000681  00000-0 -24681-4 0  9991,2 52354  53.2180 127.7865 0001468 103.2569 256.8587 15.08837028121334,6917.889,95.438,540.77,538.739,0.0
52354.0,STARLINK-3876,PAYLOAD,2024-06-22 05:39:03,15.08837163,0.0001443,53.218,126.8945,100.6794,259.436,-2.2621e-05,-6.48e-06,0.0,0 STARLINK-3876,1 52354U 22045Z   24174.23545424 -.00000648  00000-0 -22621-4 0  9996,2 52354  53.2180 126.8945 0001443 100.6794 259.4360 15.08837163121368,6917.889,95.438,540.752,538.756,0.0
52354.0,STARLINK-3876,PAYLOAD,2024-06-22 21:32:54,15.0883277,0.0001339,53.2173,123.9216,93.6112,266.5033,9.5234e-05,1.228e-05,0.0,0 STARLINK-3876,1 52354U 22045Z   24174.89785506  .00001228  00000-0  95234-4 0  9998,2 52354  53.2173 123.9216 0001339  93.6112 266.5033 15.08832770121464,6917.902,95.438,540.694,538.841,0.0
